#Pass ID: 20250127_175708_FENGYUN 3F
#Satellite: FENGYUN 3F
#Configuration: FENGYUN 3F
#Start time: 2025-01-27 17:57:13.803576

#LorettStation: 1.0.0 05.05.2024
#Station: Regia
#Location: 37.494653 lon 55.929028 lat
#TLE: 1 57490U 23111A   25026.89377159  .00000214  00000+0  12114-3 0  9995
#TLE: 2 57490  98.7444  99.6928 0001558 127.4583 232.6735 14.19982863 77019

#Time	Az	El	Level	SNR
#Closed at: 2025-01-27 17:57:08.805171